{"type": "FeatureCollection", "features": [ {"type": "Feature", "properties": {"norad_id": 66600, "name": "STARLINK-35980", "group": "last-30-days", "lat": 23.824617650492332, "lon": -53.29331402090995, "alt_km": 441.3036218592497, "timestamp": "2025-12-19T04:59:47.030379+00:00", "meta": {"OBJECT_NAME": "STARLINK-35980", "OBJECT_ID": "2025-270N", "EPOCH": "2025-12-19T00:00:02.000160", "MEAN_MOTION": 15.40670849, "ECCENTRICITY": 0.00020993, "INCLINATION": 42.9997, "RA_OF_ASC_NODE": 156.1918, "ARG_OF_PERICENTER": 277.4972, "MEAN_ANOMALY": 150.195, "EPHEMERIS_TYPE": 0, "CLASSIFICATION_TYPE": "U", "NORAD_CAT_ID": 66600, "ELEMENT_SET_NO": 999, "REV_AT_EPOCH": 530, "BSTAR": 0.0013757518, "MEAN_MOTION_DOT": 0.00057545, "MEAN_MOTION_DDOT": 0}, "tle": {"line1": "1 66600U 25270N   25353.00002315  .00057545  00000+0  13758-2 0  9994", "line2": "2 66600  42.9997 156.1918 0002099 277.4972 150.1950 15.40670849  5302"}}, "geometry": {"type": "Point", "coordinates": [-53.29331402090995, 23.824617650492332]}}, {"type": "Feature", "properties": {"norad_id": 66601, "name": "STARLINK-35978", "group": "last-30-days", "lat": 28.337073015960616, "lon": -169.4050071844455, "alt_km": 440.2185040238701, "timestamp": "2025-12-19T04:59:47.030389+00:00", "meta": {"OBJECT_NAME": "STARLINK-35978", "OBJECT_ID": "2025-270P", "EPOCH": "2025-12-19T00:00:02.000160", "MEAN_MOTION": 15.4067904, "ECCENTRICITY": 0.00015762, "INCLINATION": 42.9991, "RA_OF_ASC_NODE": 156.4332, "ARG_OF_PERICENTER": 273.7278, "MEAN_ANOMALY": 54.5156, "EPHEMERIS_TYPE": 0, "CLASSIFICATION_TYPE": "U", "NORAD_CAT_ID": 66601, "ELEMENT_SET_NO": 999, "REV_AT_EPOCH": 524, "BSTAR": 0.0012341466, "MEAN_MOTION_DOT": 0.00051563, "MEAN_MOTION_DDOT": 0}, "tle": {"line1": "1 66601U 25270P   25353.00002315  .00051563  00000+0  12341-2 0  9996", "line2": "2 66601  42.9991 156.4332 0001576 273.7278  54.5156 15.40679040  5247"}}, "geometry": {"type": "Point", "coordinates": [-169.4050071844455, 28.337073015960616]}}, {"type": "Feature", "properties": {"norad_id": 66602, "name": "STARLINK-36050", "group": "last-30-days", "lat": -20.271692872420523, "lon": 132.06091579862337, "alt_km": 445.32013957288564, "timestamp": "2025-12-19T04:59:47.030399+00:00", "meta": {"OBJECT_NAME": "STARLINK-36050", "OBJECT_ID": "2025-270Q", "EPOCH": "2025-12-18T21:20:56.943744", "MEAN_MOTION": 15.40719166, "ECCENTRICITY": 0.00014785, "INCLINATION": 42.9988, "RA_OF_ASC_NODE": 157.2495, "ARG_OF_PERICENTER": 273.7897, "MEAN_ANOMALY": 86.2791, "EPHEMERIS_TYPE": 0, "CLASSIFICATION_TYPE": "U", "NORAD_CAT_ID": 66602, "ELEMENT_SET_NO": 999, "REV_AT_EPOCH": 519, "BSTAR": 0.00058412469, "MEAN_MOTION_DOT": 0.0002419, "MEAN_MOTION_DDOT": 0}, "tle": {"line1": "1 66602U 25270Q   25352.88954796  .00024190  00000+0  58412-3 0  9997", "line2": "2 66602  42.9988 157.2495 0001478 273.7897  86.2791 15.40719166  5196"}}, "geometry": {"type": "Point", "coordinates": [132.06091579862337, -20.271692872420523]}}, {"type": "Feature", "properties": {"norad_id": 66603, "name": "STARLINK-36048", "group": "last-30-days", "lat": 42.38315498094398, "lon": -126.52103751182689, "alt_km": 438.3414949048283, "timestamp": "2025-12-19T04:59:47.030411+00:00", "meta": {"OBJECT_NAME": "STARLINK-36048", "OBJECT_ID": "2025-270R", "EPOCH": "2025-12-19T00:00:02.000160", "MEAN_MOTION": 15.40671961, "ECCENTRICITY": 0.00015235, "INCLINATION": 42.9992, "RA_OF_ASC_NODE": 156.3425, "ARG_OF_PERICENTER": 272.9773, "MEAN_ANOMALY": 92.5191, "EPHEMERIS_TYPE": 0, "CLASSIFICATION_TYPE": "U", "NORAD_CAT_ID": 66603, "ELEMENT_SET_NO": 999, "REV_AT_EPOCH": 530, "BSTAR": 0.0012839185, "MEAN_MOTION_DOT": 0.00053657, "MEAN_MOTION_DDOT": 0}, "tle": {"line1": "1 66603U 25270R   25353.00002315  .00053657  00000+0  12839-2 0  9996", "line2": "2 66603  42.9992 156.3425 0001523 272.9773  92.5191 15.40671961  5307"}}, "geometry": {"type": "Point", "coordinates": [-126.52103751182689, 42.38315498094398]}}, {"type": "Feature", "properties": {"norad_id": 66604, "name": "STARLINK-35977", "group": "last-30-days", "lat": 40.86327620326582, "lon": -93.10246999954083, "alt_km": 438.88527046239415, "timestamp": "2025-12-19T04:59:47.030421+00:00", "meta": {"OBJECT_NAME": "STARLINK-35977", "OBJECT_ID": "2025-270S", "EPOCH": "2025-12-19T00:00:02.000160", "MEAN_MOTION": 15.40672764, "ECCENTRICITY": 0.00019577, "INCLINATION": 42.9995, "RA_OF_ASC_NODE": 156.2821, "ARG_OF_PERICENTER": 280.7893, "MEAN_ANOMALY": 109.5877, "EPHEMERIS_TYPE": 0, "CLASSIFICATION_TYPE": "U", "NORAD_CAT_ID": 66604, "ELEMENT_SET_NO": 999, "REV_AT_EPOCH": 540, "BSTAR": 0.0013974681, "MEAN_MOTION_DOT": 0.00058469, "MEAN_MOTION_DDOT": 0}, "tle": {"line1": "1 66604U 25270S   25353.00002315  .00058469  00000+0  13975-2 0  9995", "line2": "2 66604  42.9995 156.2821 0001957 280.7893 109.5877 15.40672764  5404"}}, "geometry": {"type": "Point", "coordinates": [-93.10246999954083, 40.86327620326582]}}, {"type": "Feature", "properties": {"norad_id": 66605, "name": "STARLINK-36052", "group": "last-30-days", "lat": -0.48583378365833624, "lon": -24.577040122798323, "alt_km": 440.37696972405683, "timestamp": "2025-12-19T04:59:47.030432+00:00", "meta": {"OBJECT_NAME": "STARLINK-36052", "OBJECT_ID": "2025-270T", "EPOCH": "2025-12-19T00:00:02.000160", "MEAN_MOTION": 15.43802755, "ECCENTRICITY": 0.00018479, "INCLINATION": 42.9995, "RA_OF_ASC_NODE": 156.1054, "ARG_OF_PERICENTER": 294.557, "MEAN_ANOMALY": 168.4888, "EPHEMERIS_TYPE": 0, "CLASSIFICATION_TYPE": "U", "NORAD_CAT_ID": 66605, "ELEMENT_SET_NO": 999, "REV_AT_EPOCH": 540, "BSTAR": -0.094048181, "MEAN_MOTION_DOT": -0.03806129, "MEAN_MOTION_DDOT": 0}, "tle": {"line1": "1 66605U 25270T   25353.00002315 -.03806129  00000+0 -94048-1 0  9994", "line2": "2 66605  42.9995 156.1054 0001847 294.5570 168.4888 15.43802755  5409"}}, "geometry": {"type": "Point", "coordinates": [-24.577040122798323, -0.48583378365833624]}}, {"type": "Feature", "properties": {"norad_id": 66606, "name": "STARLINK-36063", "group": "last-30-days", "lat": -22.639691896275355, "lon": 1.4063597287088208, "alt_km": 416.3534868509696, "timestamp": "2025-12-19T04:59:47.030444+00:00", "meta": {"OBJECT_NAME": "STARLINK-36063", "OBJECT_ID": "2025-270U", "EPOCH": "2025-12-18T20:20:48.158304", "MEAN_MOTION": 15.50580299, "ECCENTRICITY": 0.000159, "INCLINATION": 42.9988, "RA_OF_ASC_NODE": 156.9256, "ARG_OF_PERICENTER": 261.4972, "MEAN_ANOMALY": 98.5708, "EPHEMERIS_TYPE": 0, "CLASSIFICATION_TYPE": "U", "NORAD_CAT_ID": 66606, "ELEMENT_SET_NO": 999, "REV_AT_EPOCH": 529, "BSTAR": 0.001220157, "MEAN_MOTION_DOT": 0.00071903, "MEAN_MOTION_DDOT": 0}, "tle": {"line1": "1 66606U 25270U   25352.84777961  .00071903  00000+0  12202-2 0  9994", "line2": "2 66606  42.9988 156.9256 0001590 261.4972  98.5708 15.50580299  5293"}}, "geometry": {"type": "Point", "coordinates": [1.4063597287088208, -22.639691896275355]}}, {"type": "Feature", "properties": {"norad_id": 66607, "name": "STARLINK-35993", "group": "last-30-days", "lat": -7.396148353795972, "lon": -17.1137437562942, "alt_km": 437.26230976752504, "timestamp": "2025-12-19T04:59:47.030455+00:00", "meta": {"OBJECT_NAME": "STARLINK-35993", "OBJECT_ID": "2025-270V", "EPOCH": "2025-12-19T00:00:02.000160", "MEAN_MOTION": 15.44160316, "ECCENTRICITY": 0.00017521, "INCLINATION": 42.9997, "RA_OF_ASC_NODE": 156.084, "ARG_OF_PERICENTER": 286.0338, "MEAN_ANOMALY": 186.5918, "EPHEMERIS_TYPE": 0, "CLASSIFICATION_TYPE": "U", "NORAD_CAT_ID": 66607, "ELEMENT_SET_NO": 999, "REV_AT_EPOCH": 530, "BSTAR": -0.04725951, "MEAN_MOTION_DOT": -0.019796, "MEAN_MOTION_DDOT": 0}, "tle": {"line1": "1 66607U 25270V   25353.00002315 -.01979600  00000+0 -47260-1 0  9993", "line2": "2 66607  42.9997 156.0840 0001752 286.0338 186.5918 15.44160316  5303"}}, "geometry": {"type": "Point", "coordinates": [-17.1137437562942, -7.396148353795972]}}, {"type": "Feature", "properties": {"norad_id": 66608, "name": "STARLINK-36036", "group": "last-30-days", "lat": -23.804685540413782, "lon": 3.0699123857014787, "alt_km": 416.4802481066681, "timestamp": "2025-12-19T04:59:47.030464+00:00", "meta": {"OBJECT_NAME": "STARLINK-36036", "OBJECT_ID": "2025-270W", "EPOCH": "2025-12-18T20:20:18.373632", "MEAN_MOTION": 15.50586069, "ECCENTRICITY": 0.00016708, "INCLINATION": 42.9988, "RA_OF_ASC_NODE": 156.9232, "ARG_OF_PERICENTER": 267.7224, "MEAN_ANOMALY": 92.3445, "EPHEMERIS_TYPE": 0, "CLASSIFICATION_TYPE": "U", "NORAD_CAT_ID": 66608, "ELEMENT_SET_NO": 999, "REV_AT_EPOCH": 513, "BSTAR": 0.0010510214, "MEAN_MOTION_DOT": 0.00061821, "MEAN_MOTION_DDOT": 0}, "tle": {"line1": "1 66608U 25270W   25352.84743488  .00061821  00000+0  10510-2 0  9991", "line2": "2 66608  42.9988 156.9232 0001670 267.7224  92.3445 15.50586069  5131"}}, "geometry": {"type": "Point", "coordinates": [3.0699123857014787, -23.804685540413782]}}, {"type": "Feature", "properties": {"norad_id": 66609, "name": "STARLINK-36034", "group": "last-30-days", "lat": -24.959021274793457, "lon": 4.774785890378471, "alt_km": 416.3118367071165, "timestamp": "2025-12-19T04:59:47.030476+00:00", "meta": {"OBJECT_NAME": "STARLINK-36034", "OBJECT_ID": "2025-270X", "EPOCH": "2025-12-18T18:47:03.089760", "MEAN_MOTION": 15.50589541, "ECCENTRICITY": 0.00016841, "INCLINATION": 42.9988, "RA_OF_ASC_NODE": 157.2976, "ARG_OF_PERICENTER": 249.3015, "MEAN_ANOMALY": 110.7665, "EPHEMERIS_TYPE": 0, "CLASSIFICATION_TYPE": "U", "NORAD_CAT_ID": 66609, "ELEMENT_SET_NO": 999, "REV_AT_EPOCH": 512, "BSTAR": 0.00066974617, "MEAN_MOTION_DOT": 0.00039161, "MEAN_MOTION_DDOT": 0}, "tle": {"line1": "1 66609U 25270X   25352.78267465  .00039161  00000+0  66975-3 0  9990", "line2": "2 66609  42.9988 157.2976 0001684 249.3015 110.7665 15.50589541  5126"}}, "geometry": {"type": "Point", "coordinates": [4.774785890378471, -24.959021274793457]}}]}